      2.10          N: GNSS NAV DATA                        RINEX VERSION / TYPE
fic2rin                                 03/21/2021 00:17:24 PGM / RUN BY / DATE
                                                            END OF HEADER
28 21  3 20 21 59 44.0 5.991719663143e-04-5.684341886081e-12 0.000000000000e+00
    7.000000000000e+00 8.943750000000e+01 4.190888853057e-09-2.622127511507e+00
    4.623085260391e-06 1.777986634988e-02 6.347894668579e-06 5.153670505524e+03
    5.975840000000e+05 1.508742570877e-07 2.085615698951e+00 1.899898052216e-07
    9.733857815392e-01 2.582812500000e+02-1.347609841976e+00-7.655676032493e-09
    1.175048945505e-10 1.000000000000e+00 2.149000000000e+03 0.000000000000e+00
    2.400000000000e+00 0.000000000000e+00-1.117587089539e-08 7.000000000000e+00
    5.904000000000e+05 4.000000000000e+00
30 21  3 20 21 59 44.0-4.013055004179e-04-5.456968210638e-12 0.000000000000e+00
    3.300000000000e+01 3.315625000000e+01 5.024495004671e-09 3.913394076000e-02
    1.773238182068e-06 4.980057943612e-03 8.380040526390e-06 5.153730363846e+03
    5.975840000000e+05 8.195638656616e-08 9.711811405870e-01 2.421438694000e-08
    9.371930507438e-01 2.050625000000e+02-2.831504055509e+00-8.260701234221e-09
   -1.375057276655e-10 1.000000000000e+00 2.149000000000e+03 0.000000000000e+00
    2.400000000000e+00 0.000000000000e+00 3.725290298462e-09 3.300000000000e+01
    5.904000000000e+05 4.000000000000e+00
25 21  3 20 21 59 44.0 1.027481630445e-04 7.389644451905e-12 0.000000000000e+00
    5.600000000000e+01 6.503125000000e+01 4.629121392915e-09-9.116651448898e-01
    3.643333911896e-06 9.913956397213e-03 6.508082151413e-06 5.153654535294e+03
    5.975840000000e+05 9.126961231232e-08 1.990588886851e+00 1.825392246246e-07
    9.615139950545e-01 2.572812500000e+02 9.550183754573e-01-8.189269687382e-09
    3.535861568541e-11 1.000000000000e+00 2.149000000000e+03 0.000000000000e+00
    2.400000000000e+00 0.000000000000e+00 5.587935447693e-09 5.600000000000e+01
    5.904000000000e+05 4.000000000000e+00
 2 21  3 20 22  0  0.0-5.880361422896e-04-3.637978807092e-12 0.000000000000e+00
    8.000000000000e+01-6.862500000000e+01 4.539474801632e-09 9.961269045239e-01
   -3.892928361893e-06 2.032995549962e-02 6.644055247307e-06 5.153638797760e+03
    5.976000000000e+05-2.682209014893e-07-2.270386695245e+00-3.091990947723e-07
    9.623786747290e-01 2.606250000000e+02-1.532221525028e+00-8.377491813303e-09
   -1.150047904111e-10 1.000000000000e+00 2.149000000000e+03 0.000000000000e+00
    2.400000000000e+00 0.000000000000e+00-1.769512891769e-08 8.000000000000e+01
    5.904000000000e+05 4.000000000000e+00
 5 21  3 20 22  0  0.0-3.677234053612e-05-1.023181539495e-12 0.000000000000e+00
    3.400000000000e+01-4.150000000000e+01 4.585190991609e-09-2.760740640912e+00
   -2.121552824974e-06 6.007531657815e-03 7.744878530502e-06 5.153836746216e+03
    5.976000000000e+05 6.332993507385e-08-1.185447657968e+00-3.352761268616e-08
    9.553064635259e-01 2.281875000000e+02 8.796829454114e-01-7.905329288696e-09
    2.014369620866e-10 1.000000000000e+00 2.149000000000e+03 0.000000000000e+00
    2.400000000000e+00 0.000000000000e+00-1.117587089539e-08 3.400000000000e+01
    5.904000000000e+05 4.000000000000e+00
 3 21  3 20 22  0  0.0-1.136618666351e-04-1.068656274583e-11 0.000000000000e+00
    6.300000000000e+01-3.659375000000e+01 4.389111395536e-09-3.614981989710e-01
   -1.957640051842e-06 3.334931330755e-03 8.109956979752e-06 5.153631898880e+03
    5.976000000000e+05-9.313225746155e-09-1.149490449668e+00 7.823109626770e-08
    9.683697850828e-01 2.252187500000e+02 8.302123005319e-01-7.974260731396e-09
    1.810789712374e-10 1.000000000000e+00 2.149000000000e+03 0.000000000000e+00
    2.400000000000e+00 0.000000000000e+00 1.862645149231e-09 6.300000000000e+01
    5.904000000000e+05 4.000000000000e+00
 4 21  3 20 22  0  0.0-1.873471774161e-04-2.160049916711e-12 0.000000000000e+00
    1.430000000000e+02-9.093750000000e+00 4.604120351522e-09 2.432677174243e+00
   -4.637986421585e-07 1.133290585130e-03 7.633119821548e-06 5.153764051437e+03
    5.976000000000e+05 0.000000000000e+00-6.918111947703e-02-1.117587089539e-08
    9.607419034652e-01 2.325000000000e+02-2.986203301914e+00-7.959260106560e-09
   -3.392998474863e-11 1.000000000000e+00 2.149000000000e+03 0.000000000000e+00
    2.400000000000e+00 0.000000000000e+00-4.190951585770e-09 1.430000000000e+02
    5.904000000000e+05 4.000000000000e+00
31 21  3 20 22  0  0.0-1.067756675184e-04-2.273736754432e-12 0.000000000000e+00
    8.000000000000e+00 3.353125000000e+01 4.574833417318e-09-3.856116576105e-01
    1.957640051842e-06 9.952251915820e-03 8.216127753258e-06 5.153757946014e+03
    5.976000000000e+05 1.527369022369e-07 9.697817321703e-01 6.332993507385e-08
    9.562967259400e-01 2.155625000000e+02 2.547209582189e-01-8.122838348822e-09
   -7.071723137082e-11 1.000000000000e+00 2.149000000000e+03 0.000000000000e+00
    2.400000000000e+00 0.000000000000e+00-1.303851604462e-08 8.000000000000e+00
    5.904000000000e+05 4.000000000000e+00
29 21  3 20 22  0  0.0-3.154482692480e-04-6.821210263297e-12 0.000000000000e+00
    4.000000000000e+01-5.593750000000e+00 4.191246010791e-09 3.079086517707e+00
   -2.104789018631e-07 1.619655522518e-03 4.451721906662e-06 5.153670045853e+03
    5.976000000000e+05 5.401670932770e-08 3.111195269840e+00 9.499490261078e-08
    9.846574234369e-01 3.076562500000e+02 2.119369417615e+00-8.002476192397e-09
   -8.928943354902e-12 1.000000000000e+00 2.149000000000e+03 0.000000000000e+00
    2.400000000000e+00 0.000000000000e+00-1.024454832077e-08 4.000000000000e+01
    5.904000000000e+05 4.000000000000e+00
27 21  3 20 22  0  0.0-9.772693738341e-05-7.048583938740e-12 0.000000000000e+00
    2.900000000000e+01-3.750000000000e+00 4.273392289656e-09 2.918881245566e+00
   -2.719461917877e-07 9.259627782740e-03 4.542991518974e-06 5.153680788040e+03
    5.976000000000e+05-7.264316082001e-08 3.038624319014e+00-1.750886440277e-07
    9.766686560212e-01 3.011875000000e+02 5.909384420667e-01-7.924615806343e-09
   -4.607334771129e-11 1.000000000000e+00 2.149000000000e+03 0.000000000000e+00
    2.400000000000e+00 0.000000000000e+00 1.862645149231e-09 2.900000000000e+01
    5.904000000000e+05 4.000000000000e+00
19 21  3 20 22  0  0.0-2.371985465288e-05 5.002220859751e-12 0.000000000000e+00
    2.900000000000e+01-2.125000000000e+00 4.283749863948e-09-8.664259671479e-01
   -2.235174179077e-08 9.101551142521e-03 4.481524229050e-06 5.153624771118e+03
    5.976000000000e+05-1.620501279831e-07-3.139098956117e+00-1.676380634308e-08
    9.813070148046e-01 3.059062500000e+02 1.795824106139e+00-8.235343035093e-09
   -2.250093725435e-11 1.000000000000e+00 2.149000000000e+03 0.000000000000e+00
    2.400000000000e+00 0.000000000000e+00-1.583248376846e-08 2.900000000000e+01
    5.904000000000e+05 4.000000000000e+00
18 21  3 20 22  0  0.0 3.509065136313e-04 6.821210263297e-13 0.000000000000e+00
    1.800000000000e+01-5.118750000000e+01 4.314465429089e-09 9.095448952929e-01
   -2.739951014519e-06 1.222127466463e-03 6.558373570442e-06 5.153681726456e+03
    5.976000000000e+05-2.235174179077e-08-2.175222737501e+00-4.842877388000e-08
    9.672715110381e-01 2.523125000000e+02 3.004329392344e+00-8.040334912222e-09
   -7.857470152314e-11 1.000000000000e+00 2.149000000000e+03 0.000000000000e+00
    2.400000000000e+00 0.000000000000e+00-8.381903171539e-09 1.800000000000e+01
    5.904000000000e+05 4.000000000000e+00
12 21  3 20 22  0  0.0-1.672096550465e-05-5.343281372916e-12 0.000000000000e+00
    6.700000000000e+01 6.259375000000e+01 4.417326856537e-09-5.695737567589e-01
    3.403052687645e-06 8.475431357510e-03 6.968155503273e-06 5.153774169922e+03
    5.976000000000e+05-4.097819328308e-08 2.063255936766e+00 1.005828380585e-07
    9.741941578856e-01 2.588750000000e+02 1.188793881191e+00-8.104623304378e-09
    6.393123442110e-11 1.000000000000e+00 2.149000000000e+03 0.000000000000e+00
    2.400000000000e+00 0.000000000000e+00-1.257285475731e-08 6.700000000000e+01
    5.904000000000e+05 4.000000000000e+00
16 21  3 20 22  0  0.0-2.970746718347e-04-5.798028723802e-12 0.000000000000e+00
    4.300000000000e+01 6.493750000000e+01 4.302322066126e-09-2.440483881504e+00
    3.060325980186e-06 1.225101272576e-02 5.913898348808e-06 5.153668159485e+03
    5.976000000000e+05 1.210719347000e-07 2.082039020779e+00-1.918524503708e-07
    9.743068289102e-01 2.734687500000e+02 6.657515635449e-01-7.864256149264e-09
    1.207193141583e-10 1.000000000000e+00 2.149000000000e+03 0.000000000000e+00
    2.400000000000e+00 0.000000000000e+00-1.024454832077e-08 4.300000000000e+01
    5.904000000000e+05 4.000000000000e+00
10 21  3 20 22  0  0.0-8.515268564224e-05-7.958078640513e-12 0.000000000000e+00
    4.900000000000e+01-2.862500000000e+01 4.275535236061e-09-1.311811016503e+00
   -1.600012183189e-06 6.533367792144e-03 8.039176464081e-06 5.153669754028e+03
    5.976000000000e+05 1.657754182816e-07-1.152403511626e+00-1.415610313416e-07
    9.682615262191e-01 2.301875000000e+02-2.571705950858e+00-7.824254483034e-09
    1.282196265764e-10 1.000000000000e+00 2.149000000000e+03 0.000000000000e+00
    2.400000000000e+00 0.000000000000e+00 2.328306436539e-09 4.900000000000e+01
    5.904000000000e+05 4.000000000000e+00
 6 21  3 20 22  0  0.0 1.937616616488e-06 2.160049916711e-12 0.000000000000e+00
    3.500000000000e+01-7.106250000000e+01 3.944450016462e-09 1.026806783607e+00
   -3.833323717117e-06 2.332204021513e-03 6.545335054398e-06 5.153732088089e+03
    5.976000000000e+05 2.235174179077e-08-2.196230344986e+00-2.607703208923e-08
    9.830770110921e-01 2.649375000000e+02-1.025913502421e+00-7.858184467782e-09
   -1.057186893220e-10 1.000000000000e+00 2.149000000000e+03 0.000000000000e+00
    2.400000000000e+00 0.000000000000e+00 3.725290298462e-09 3.500000000000e+01
    5.904000000000e+05 4.000000000000e+00
